ORBCOMM FM20            
1 25416U 98046D   25070.02855419  .00001601  00000+0  58399-3 0  9997
2 25416  44.9939 286.0306 0000977 115.9188 244.1760 14.36862700390181
ORBCOMM FM16            
1 25417U 98046E   25069.92893261  .00002248  00000+0  77611-3 0  9998
2 25417  44.9926 279.3246 0004733 155.3870 204.7205 14.38418864390104
ORBCOMM FM15            
1 25418U 98046F   25070.02020343  .00002108  00000+0  73571-3 0  9991
2 25418  44.9960 283.7481 0004203 155.7628 204.3418 14.38088558390284
ORBCOMM FM14            
1 25419U 98046G   25069.99232611  .00002235  00000+0  77198-3 0  9999
2 25419  44.9950 282.3894 0003247 145.7714 214.3344 14.38410885390291
ORBCOMM FM13            
1 25420U 98046H   25069.95436972  .00001796  00000+0  64398-3 0  9992
2 25420  44.9970 289.6197 0005161 137.5957 222.5290 14.37274457390233
ORBCOMM FM23            
1 25477U 98053C   25069.88243401  .00002210  00000+0  78380-3 0  9995
2 25477  45.0093  17.1818 0002031  32.6663 327.4310 14.37141227383259
